GLOBALSTAR M035 [-]     
1 25851U 99037A   24080.90769969 -.00000012  00000+0  19389-2 0  9993
2 25851  51.9999 345.8116 0013526 330.1337 110.5913 11.04528762 46174
GLOBALSTAR M032 [-]     
1 25852U 99037B   24080.65630732 -.00000069  00000+0 -63865-4 0  9994
2 25852  51.9933 202.8621 0010498 123.0546 237.1263 11.19050235 84012
GLOBALSTAR M051 [-]     
1 25853U 99037C   24080.91246022 -.00000068  00000+0  10453-3 0  9991
2 25853  51.9803  54.3473 0001629 116.0224 244.0755 11.42194625 80595
GLOBALSTAR M030 [-]     
1 25854U 99037D   24080.89963288 -.00000049  00000+0  53974-3 0  9993
2 25854  51.9854 249.3115 0003033 326.9073  33.1553 11.55085867 97666
GLOBALSTAR M048 [-]     
1 25872U 99041A   24080.97418604 -.00000043  00000+0  72850-3 0  9992
2 25872  51.9400 331.7140 0013834 118.0574 255.3342 11.33844093 73571
GLOBALSTAR M026 [-]     
1 25873U 99041B   24080.34354464 -.00000051  00000+0  47448-3 0  9991
2 25873  51.9986 109.8076 0001393 203.6626 246.6376 11.06834838 98235
GLOBALSTAR M043 [-]     
1 25874U 99041C   24080.36376677 -.00000039  00000+0  87633-3 0  9990
2 25874  51.9402  62.7127 0012735 259.5151 279.8151 11.25675734 71765
GLOBALSTAR M028 [-]     
1 25875U 99041D   24081.21744789 -.00000076  00000+0  15565-3 0  9995
2 25875  51.9611 103.7038 0063682 167.5454 192.6997 12.50552022133533
